{
  "type": "FeatureCollection",
  "features": [
    {
      "type": "Feature",
      "properties": {
        "norad_id": 44231,
        "name": "BEIDOU-2 G8 (C01)",
        "group": "gnss",
        "lat": 1.5353202274722175,
        "lon": 142.91235889287697,
        "alt_km": 35822.09915841811,
        "timestamp": "2025-12-06T18:50:10.411531+00:00",
        "meta_object_name": "BEIDOU-2 G8 (C01)",
        "meta_object_id": "2019-027A",
        "meta_epoch": "2025-12-06T05:57:38.626272",
        "meta_mean_motion": 1.00269417,
        "meta_eccentricity": 0.0008512,
        "meta_inclination": 1.6446,
        "meta_ra_of_asc_node": 74.7141,
        "meta_arg_of_pericenter": 254.8767,
        "meta_mean_anomaly": 339.6701,
        "meta_ephemeris_type": 0,
        "meta_classification_type": "U",
        "meta_norad_cat_id": 44231,
        "meta_element_set_no": 999,
        "meta_rev_at_epoch": 2414,
        "meta_bstar": 0,
        "meta_mean_motion_dot": -2.4e-06,
        "meta_mean_motion_ddot": 0,
        "tle_line1": "1 44231U 19027A   25340.24836373 -.00000240  00000+0  00000+0 0  9998",
        "tle_line2": "2 44231   1.6446  74.7141 0008512 254.8767 339.6701  1.00269417 24146"
      },
      "geometry": {
        "type": "Point",
        "coordinates": [
          142.91235889287697,
          1.5353202274722175
        ]
      }
    },
    {
      "type": "Feature",
      "properties": {
        "norad_id": 44299,
        "name": "COSMOS 2534 (758)",
        "group": "gnss",
        "lat": 40.27366191379002,
        "lon": -4.909427651035784,
        "alt_km": 19145.0509410444,
        "timestamp": "2025-12-06T18:50:10.411549+00:00",
        "meta_object_name": "COSMOS 2534 (758)",
        "meta_object_id": "2019-030A",
        "meta_epoch": "2025-12-05T09:38:44.490912",
        "meta_mean_motion": 2.13101983,
        "meta_eccentricity": 0.00090311,
        "meta_inclination": 64.3653,
        "meta_ra_of_asc_node": 199.1403,
        "meta_arg_of_pericenter": 283.6175,
        "meta_mean_anomaly": 229.7103,
        "meta_ephemeris_type": 0,
        "meta_classification_type": "U",
        "meta_norad_cat_id": 44299,
        "meta_element_set_no": 999,
        "meta_rev_at_epoch": 5079,
        "meta_bstar": 0,
        "meta_mean_motion_dot": 8.7e-07,
        "meta_mean_motion_ddot": 0,
        "tle_line1": "1 44299U 19030A   25339.40190383  .00000087  00000+0  00000+0 0  9994",
        "tle_line2": "2 44299  64.3653 199.1403 0009031 283.6175 229.7103  2.13101983 50792"
      },
      "geometry": {
        "type": "Point",
        "coordinates": [
          -4.909427651035784,
          40.27366191379002
        ]
      }
    },
    {
      "type": "Feature",
      "properties": {
        "norad_id": 44337,
        "name": "BEIDOU-3 IGSO-2 (C39)",
        "group": "gnss",
        "lat": -33.50046760682059,
        "lon": 133.11004788514958,
        "alt_km": 35857.9490921645,
        "timestamp": "2025-12-06T18:50:10.411566+00:00",
        "meta_object_name": "BEIDOU-3 IGSO-2 (C39)",
        "meta_object_id": "2019-035A",
        "meta_epoch": "2025-12-01T05:17:49.661952",
        "meta_mean_motion": 1.00274502,
        "meta_eccentricity": 0.00376064,
        "meta_inclination": 55.2223,
        "meta_ra_of_asc_node": 160.6035,
        "meta_arg_of_pericenter": 202.2564,
        "meta_mean_anomaly": 266.4761,
        "meta_ephemeris_type": 0,
        "meta_classification_type": "U",
        "meta_norad_cat_id": 44337,
        "meta_element_set_no": 999,
        "meta_rev_at_epoch": 2368,
        "meta_bstar": 0,
        "meta_mean_motion_dot": -2.5e-07,
        "meta_mean_motion_ddot": 0,
        "tle_line1": "1 44337U 19035A   25335.22071368 -.00000025  00000+0  00000+0 0  9992",
        "tle_line2": "2 44337  55.2223 160.6035 0037606 202.2564 266.4761  1.00274502 23688"
      },
      "geometry": {
        "type": "Point",
        "coordinates": [
          133.11004788514958,
          -33.50046760682059
        ]
      }
    },
    {
      "type": "Feature",
      "properties": {
        "norad_id": 44506,
        "name": "GPS BIII-2  (PRN 18)",
        "group": "gnss",
        "lat": 45.78383160443218,
        "lon": 23.2851255949381,
        "alt_km": 20290.702780468135,
        "timestamp": "2025-12-06T18:50:10.411588+00:00",
        "meta_object_name": "GPS BIII-2  (PRN 18)",
        "meta_object_id": "2019-056A",
        "meta_epoch": "2025-12-05T10:37:28.856640",
        "meta_mean_motion": 2.00565628,
        "meta_eccentricity": 0.00578088,
        "meta_inclination": 55.7239,
        "meta_ra_of_asc_node": 338.8423,
        "meta_arg_of_pericenter": 198.4648,
        "meta_mean_anomaly": 333.0445,
        "meta_ephemeris_type": 0,
        "meta_classification_type": "U",
        "meta_norad_cat_id": 44506,
        "meta_element_set_no": 999,
        "meta_rev_at_epoch": 4618,
        "meta_bstar": 0,
        "meta_mean_motion_dot": -7.6e-07,
        "meta_mean_motion_ddot": 0,
        "tle_line1": "1 44506U 19056A   25339.44269510 -.00000076  00000+0  00000+0 0  9995",
        "tle_line2": "2 44506  55.7239 338.8423 0057808 198.4648 333.0445  2.00565628 46186"
      },
      "geometry": {
        "type": "Point",
        "coordinates": [
          23.2851255949381,
          45.78383160443218
        ]
      }
    },
    {
      "type": "Feature",
      "properties": {
        "norad_id": 44542,
        "name": "BEIDOU-3 M24 (C46)",
        "group": "gnss",
        "lat": -21.973038492709993,
        "lon": 26.03179889617074,
        "alt_km": 21557.87635525085,
        "timestamp": "2025-12-06T18:50:10.411606+00:00",
        "meta_object_name": "BEIDOU-3 M24 (C46)",
        "meta_object_id": "2019-061A",
        "meta_epoch": "2025-12-04T20:45:16.055424",
        "meta_mean_motion": 1.86229249,
        "meta_eccentricity": 0.00095755,
        "meta_inclination": 54.4001,
        "meta_ra_of_asc_node": 189.282,
        "meta_arg_of_pericenter": 24.0464,
        "meta_mean_anomaly": 336.0883,
        "meta_ephemeris_type": 0,
        "meta_classification_type": "U",
        "meta_norad_cat_id": 44542,
        "meta_element_set_no": 999,
        "meta_rev_at_epoch": 4217,
        "meta_bstar": 0,
        "meta_mean_motion_dot": 9.8e-07,
        "meta_mean_motion_ddot": 0,
        "tle_line1": "1 44542U 19061A   25338.86476916  .00000098  00000+0  00000+0 0  9999",
        "tle_line2": "2 44542  54.4001 189.2820 0009575  24.0464 336.0883  1.86229249 42179"
      },
      "geometry": {
        "type": "Point",
        "coordinates": [
          26.03179889617074,
          -21.973038492709993
        ]
      }
    },
    {
      "type": "Feature",
      "properties": {
        "norad_id": 44543,
        "name": "BEIDOU-3 M23 (C45)",
        "group": "gnss",
        "lat": 44.58605538619318,
        "lon": -35.74531857926011,
        "alt_km": 21525.137307434972,
        "timestamp": "2025-12-06T18:50:10.411626+00:00",
        "meta_object_name": "BEIDOU-3 M23 (C45)",
        "meta_object_id": "2019-061B",
        "meta_epoch": "2025-12-04T17:20:06.370944",
        "meta_mean_motion": 1.86227466,
        "meta_eccentricity": 0.0006129,
        "meta_inclination": 54.3989,
        "meta_ra_of_asc_node": 189.2553,
        "meta_arg_of_pericenter": 23.0087,
        "meta_mean_anomaly": 154.4182,
        "meta_ephemeris_type": 0,
        "meta_classification_type": "U",
        "meta_norad_cat_id": 44543,
        "meta_element_set_no": 999,
        "meta_rev_at_epoch": 4217,
        "meta_bstar": 0,
        "meta_mean_motion_dot": 1e-06,
        "meta_mean_motion_ddot": 0,
        "tle_line1": "1 44543U 19061B   25338.72229596  .00000100  00000+0  00000+0 0  9999",
        "tle_line2": "2 44543  54.3989 189.2553 0006129  23.0087 154.4182  1.86227466 42172"
      },
      "geometry": {
        "type": "Point",
        "coordinates": [
          -35.74531857926011,
          44.58605538619318
        ]
      }
    },
    {
      "type": "Feature",
      "properties": {
        "norad_id": 44624,
        "name": "EUTELSAT 5 WEST B (EGNOS/PRN 121)",
        "group": "gnss",
        "lat": 0.02970058707515522,
        "lon": -6.605028188621162,
        "alt_km": 35788.44320814897,
        "timestamp": "2025-12-06T18:50:10.411644+00:00",
        "meta_object_name": "EUTELSAT 5 WEST B (EGNOS/PRN 121)",
        "meta_object_id": "2019-067A",
        "meta_epoch": "2025-12-06T06:08:38.706720",
        "meta_mean_motion": 1.00270399,
        "meta_eccentricity": 0.00035924,
        "meta_inclination": 0.0675,
        "meta_ra_of_asc_node": 334.5207,
        "meta_arg_of_pericenter": 281.3365,
        "meta_mean_anomaly": 266.6069,
        "meta_ephemeris_type": 0,
        "meta_classification_type": "U",
        "meta_norad_cat_id": 44624,
        "meta_element_set_no": 999,
        "meta_rev_at_epoch": 2250,
        "meta_bstar": 0,
        "meta_mean_motion_dot": -3.4e-07,
        "meta_mean_motion_ddot": 0,
        "tle_line1": "1 44624U 19067A   25340.25600355 -.00000034  00000+0  00000+0 0  9999",
        "tle_line2": "2 44624   0.0675 334.5207 0003592 281.3365 266.6069  1.00270399 22506"
      },
      "geometry": {
        "type": "Point",
        "coordinates": [
          -6.605028188621162,
          0.02970058707515522
        ]
      }
    }
  ]
}